#dP2022  1  8  0  0  0.00000000      96 __u+U ITR00 FIT  IAC
## 2191 518400.00000000   900.00000000 59587 0.0000000000000
+  113   C06C07C08C09C10C11C12C13C14C16C19C20C21C22C23C24C25
+        C26C27C28C29C30C32C33C34C35C36C37C38C39C40C41C42C43
+        C44C45C46E01E02E03E04E05E07E08E09E11E12E13E14E15E18
+        E19E21E24E25E26E27E30E31E33E36G01G02G03G04G05G06G07
+        G08G09G10G11G12G13G14G15G16G17G18G19G20G21G22G23G24
+        G25G26G27G28G29G30G31G32R01R02R03R04R05R07R08R09R11
+        R12R13R14R15R17R18R19R20R21R22R24  0  0  0  0  0  0
++         8  7  8  8  7  6  6  9  7  8  5  6  6  5  7  8  6
++         7  8  8  8  7  8  6  8  6  7  7  6  8  7  6  7  8
++         6  8  8  8  6  5  7  5  7  8  7  7  7  5  7  7  6
++         8  5  5  5  5  5  5  6  5  6  6  7  5  7  6  6  5
++         5  5  7  7  4  6  4  5  5  5  6  6  6  5  5  7  6
++         4  5  5  5  6  5  6  4  7  6  6  8  7  5  6  6  7
++         6  7  7  7  7  7  6  7  7  7  7  0  0  0  0  0  0
%c M  cc GPS ccc cccc cccc cccc cccc ccccc ccccc ccccc ccccc
%c cc cc ccc ccc cccc cccc cccc cccc ccccc ccccc ccccc ccccc
%f  0.0000000  0.000000000  0.00000000000  0.000000000000000
%f  0.0000000  0.000000000  0.00000000000  0.000000000000000
%i    0    0    0    0      0      0      0      0         0
%i    0    0    0    0      0      0      0      0         0
/* INFORMATION & ANALYSIS CENTER (IAC)      ULTRA-RAPID DATA
/* S/V CLOCKS ARE ALIGNED TO GNSS TIME                      
/* G:C1WC2W R:C1PC2P E:C1XC5X C:C2IC6I J:C1CC2S             
/* PCV:IGS14_2186 OL/AL:FES2004  NONE     YN ORB:CoN CLK:CoN
*  2022 01 08 15  0  0.00000000
PC06  -5008.313933  24611.518929 -33854.515032   -155.562487
PC07 -16438.868051  34331.464548  17983.839687     24.556173
PC08  -3204.131146  39673.199358  14149.830408     43.254137
PC09   3169.211700  27095.089858 -31716.880830   -417.413146
PC10  -9795.460320  33982.301822  22871.221269    139.157668
PC11  25380.757801   4465.388408 -10676.143595   -283.162406
PC12  22298.603743  15377.085168   6788.533033   -432.650487
PC13    471.099313  41357.730588   9042.454906   -153.106905
PC14  23980.364644  -6560.325893 -12705.412176    474.831243
PC16  -8904.236206  22415.922535 -34457.608602     49.651248
PC19 -23833.326791  13961.211421   3960.814629    912.449570
PC20 -20987.304742   -388.831851  18388.916704   -802.712406
PC21   5357.697265  15377.475378 -22646.882280   -959.983272
PC22 -12977.698588  20763.532229 -13370.878940   -960.920288
PC23   4767.219562 -25598.576863  10020.224477   -966.640777
PC24  15567.016861  11639.248860  20020.487431   -946.471675
PC25  14001.371763 -11304.995425  21312.907426   -797.866048
PC26   8762.130190  25308.207715   7898.365178    796.382264
PC27 -15416.130434 -18239.968332 -14464.400796    658.115754
PC28   3948.307011 -15567.570110 -22814.516015     18.448620
PC29 -21079.955396   4466.814511  17731.733216    498.641897
PC30 -26113.786821  -9728.657363   1696.784743    490.681184
PC32  -5416.427693 -15401.691291  22644.195709   -957.515576
PC33  23774.057205 -14061.941328  -4009.553116   -955.836379
PC34  26218.876752   9154.411638  -2612.298556   -496.425607
PC35  -4176.329232  15489.479936  22829.272446     83.606950
PC36 -14403.178400  10502.582649 -21454.915306   -858.975868
PC37  -7543.264240 -25939.862419  -6929.821775   -935.015270
PC38  -8541.939655  35938.583040  20512.788114    202.572269
PC39 -12632.839344  20941.992977 -34380.259970     34.582527
PC40 -24647.722511  29970.674959  16336.839503    233.779887
PC41  13219.761296 -20835.181631  13072.866795   -921.450479
PC42  20516.131130   1164.982025 -18844.754587   -929.636084
PC43  21531.138485  -4005.842866 -17284.353663   -949.311171
PC44  15796.052009  17787.981583  14555.833988    524.947809
PC45  -4545.849490  25721.007545  -9868.647023    648.424563
PC46 -15739.454144 -10111.987631 -20695.225406   -103.768224
PE01  -7370.011326  27977.183994   6292.675997   -555.321607
PE02   7246.441355 -27953.118648  -6445.275506    272.254225
PE03   4829.240237 -17323.346243  23504.242483   -514.921618
PE04  16847.450066  12689.494675 -20766.646129   -938.344245
PE05  24069.337965 -11866.042658  12484.772328   -220.296836
PE07 -29049.514548   -425.926615   5655.947465   -626.238078
PE08 -17277.974144 -12300.843799  20640.030293   5875.458255
PE09  29094.556135    132.488427  -5477.378280   5402.097305
PE11  21706.067592   9222.693452 -17880.504548   4722.151473
PE12  17881.483558  23577.754439    162.967167   4820.267312
PE13 -21796.599471  -9800.077889  17478.418805    425.448934
PE14 -25000.645262  -5703.505625  -4440.205714  -1703.067686
PE15 -17904.986129 -23571.288932   -264.825862    770.513966
PE18  29405.653813  -4831.880165  -9252.541129  -1874.472175
PE19  -7684.482989  17063.069609 -22936.818543    472.461137
PE21 -17375.913229  21093.695505 -11389.371935   -710.039185
PE24  17687.745795   -228.856174  23714.417361  -1324.127873
PE25  17452.413359 -20893.018781  11609.473216   -559.588647
PE26 -12283.857220  10674.533716  24735.670755   -664.154750
PE27 -17997.527689   1692.020437 -23441.111600   -204.994646
PE30  -7206.880856 -19516.381319 -21056.129932   -175.513393
PE31   8020.515246  18577.366511  21613.876091   -490.474277
PE33   3450.135490  23394.590658  17810.840733   -460.600231
PE36  12855.408417  -9651.191172 -24844.888992   -315.214720
PG01 -17510.520650  -6418.371089  18771.022100    462.581846
PG02  14905.449234  21863.707565   -720.754555   -648.089882
PG03 -17978.067068   5000.594377  18757.062114    -70.468892
PG04 -26564.210353   -492.671318  -1368.559722   -195.859389
PG05  11202.469682  10994.826956 -21571.155954    -67.198321
PG06   3342.886961  23260.166354  12382.671012    165.106805
PG07 -11403.899156  10581.187669 -21101.057835    299.731367
PG08 -24022.240370  -6687.279535  -9643.909572    -51.320666
PG09 -22289.065669   8378.080421 -11873.510424   -358.515830
PG10  10934.006536 -23688.585810   4170.943471   -288.483907
PG11  12118.152440  23621.555008  -1053.527733    -24.142662
PG12  17484.402561  -1469.262605  19636.807766   -152.813191
PG13  18010.832668  13075.534414 -14766.470755    242.140908
PG14 -12305.223937  23219.173004   3615.059642    -67.710537
PG15  24751.540880   4498.094018  -9414.097418    -93.068859
PG16  -7312.193094 -14501.330723 -21181.424792   -452.680027
PG17 -10085.318333  13349.960379  21077.912605    558.639541
PG18  10688.061996 -11334.491016 -21500.197856    264.703174
PG19   -700.419584  14714.404800  21845.629773    102.897121
PG20   4868.775249  20159.358134 -16743.964405    517.267009
PG21 -19679.031328 -13708.552634  12726.476065    155.667151
PG22 -15367.106317  -4184.822263  21410.472322   -422.271093
PG23  16701.516420 -19284.533398  -7233.442004     13.264714
PG24  19609.717758   9521.414906  15157.447096    277.056621
PG25  18559.429399 -13646.231060  12693.211283    267.903189
PG26   1695.203572 -23053.762835 -12878.853943    172.534017
PG27 -15829.281040 -12376.696308 -17753.455747     56.319048
PG28  -7036.836621  23105.151484  11827.318217    426.350464
PG29  24610.877596  -3909.134906  -9317.172577   -464.707139
PG30  -4399.064374  19341.369864 -17480.475278   -505.302691
PG31  -4589.596301 -23941.935206   9828.275648   -158.973122
PG32   4937.447764 -15018.418912  21441.267104    -47.330951
PR01     68.128953 -12096.421518  22456.337957      7.231852
PR02 -18184.572972   -889.213490  17936.375617    505.884211
PR03 -23490.236447   9679.248701   2650.926843     49.568735
PR04 -15669.052437  14506.669328 -13940.799413    122.619338
PR05    755.574484  11396.782516 -22803.115977     85.607692
PR07  23354.820062 -10018.932890  -1823.237777     30.482538
PR08  15451.546789 -14637.286580  14088.790234    -62.968373
PR09   9874.481275  10033.303251  21269.225288     33.023219
PR11   6035.921256 -22891.183880   9518.086214     47.567303
PR12  -2418.242813 -23764.954846  -8891.287575    293.250394
PR13  -9312.882565 -11190.881866 -20962.523501    -16.775535
PR14 -10941.165179   9165.547007 -21131.503193     73.002073
PR15  -6073.768596  23160.395562  -8789.143003     99.040086
PR17 -17626.510748  -2197.433080  18304.825192    490.790272
PR18  -4443.844821   9627.341216  23218.607632    103.188665
PR19   9858.831414  16638.155328  16640.983992   -173.677577
PR20  20872.472639  14436.773109  -2321.890397    -62.692703
PR21  16806.905052   1337.946716 -19144.986972   -268.506361
PR22   3459.501640 -10224.145282 -23125.236674   -156.762511
PR24 -21352.248617 -13607.528037   3064.943691     74.774113
EOF
